SL-8 R/B
1 11574U 79089B   26110.43013928  .00000162  00000+0  56999-4 0  9991
2 11574  74.0712  13.7768 0015853 179.1571 180.9615 14.42376657442124
SL-14 R/B
1 11672U 80005B   26110.40472966  .00000391  00000+0  36916-4 0  9999
2 11672  82.5117 267.6516 0016363  29.4072 330.8064 14.90976329482704
SL-8 R/B
1 12139U 81003B   26110.36604976  .00010303  00000+0  25545-3 0  9999
2 12139  82.9371 251.4290 0257040  33.8336 327.8996 15.12683574320972
SL-3 R/B
1 12465U 81046B   26110.62530729  .00010041  00000+0  22583-3 0  9999
2 12465  81.2313 239.3405 0018257 231.4785 128.4823 15.42995496444898
SL-3 R/B
1 12904U 81103B   26110.52980080  .00002861  00000+0  12456-3 0  9998
2 12904  81.1587 164.3433 0014066 142.2399 217.9823 15.21815790979599
SL-3 R/B
1 13068U 82013B   26110.52191524  .00003046  00000+0  12998-3 0  9995
2 13068  81.1712 111.7197 0023023  41.8211 318.4775 15.22356927410714
SL-3 R/B
1 13154U 82039B   26110.53117391  .00001074  00000+0  63542-4 0  9991
2 13154  81.1503 167.7007 0028084 182.3481 177.7618 15.10286422387951
SL-3 R/B
1 13403U 82079B   26110.59245053  .00003333  00000+0  13034-3 0  9995
2 13403  81.1447 143.5852 0024622  27.4737 332.7792 15.25273614384084
SL-14 R/B
1 13553U 82092B   26110.45889596  .00000281  00000+0  28655-4 0  9992
2 13553  82.5647 102.3163 0020889 158.3905   2.6464 14.86701240335135
SL-3 R/B
1 13819U 83010B   26110.28536600  .00009044  00000+0  17412-3 0  9998
2 13819  81.1008 311.1936 0015025 261.6049  98.3494 15.47603914364377
SL-3 R/B
1 14208U 83075B   26110.56178805  .00008804  00000+0  22553-3 0  9997
2 14208  97.6131 116.7576 0023177  81.3017 279.0852 15.39361375336599
COSMOS 1536
1 14699U 84013A   26110.34448638  .00005303  00000+0  21449-3 0  9998
2 14699  82.5451  66.4159 0015797 130.4760 229.7858 15.24380575278960
SL-14 R/B
1 14820U 84027B   26110.23976073  .00000304  00000+0  31856-4 0  9996
2 14820  82.5443 206.0495 0017686 191.0593 169.0237 14.86018339253804
SL-8 R/B
1 15483U 85006B   26110.46521161  .00000145  00000+0  56680-4 0  9994
2 15483  74.0462 184.2796 0017194  88.2622 282.9711 14.37809331160032
SL-12 R/B(2)
1 15772U 85042D   26110.43077291 -.00000001  00000+0  20943-4 0  9997
2 15772  71.1102 359.5427 0033243  58.9280 113.4906 14.21993898120324
SL-14 R/B
1 15945U 85069B   26110.07719048  .00000305  00000+0  31647-4 0  9990
2 15945  82.5284 346.0257 0020121  57.8951 302.4215 14.86473466178982
SL-16 R/B
1 16182U 85097B   26110.31485358 -.00000023  00000+0  12602-4 0  9994
2 16182  71.0039  52.9161 0008374 208.9131 313.7064 14.16607181 93124
