[{"OBJECT_NAME":"SL-8 R/B","OBJECT_ID":"1979-089B","EPOCH":"2026-04-20T10:19:24.033792","MEAN_MOTION":14.42376657,"ECCENTRICITY":0.00158537,"INCLINATION":74.0712,"RA_OF_ASC_NODE":13.7768,"ARG_OF_PERICENTER":179.1571,"MEAN_ANOMALY":180.9615,"EPHEMERIS_TYPE":0,"CLASSIFICATION_TYPE":"U","NORAD_CAT_ID":11574,"ELEMENT_SET_NO":999,"REV_AT_EPOCH":44212,"BSTAR":5.6999286e-5,"MEAN_MOTION_DOT":1.62e-6,"MEAN_MOTION_DDOT":0},{"OBJECT_NAME":"SL-14 R/B","OBJECT_ID":"1980-005B","EPOCH":"2026-04-20T09:42:48.642624","MEAN_MOTION":14.90976329,"ECCENTRICITY":0.00163636,"INCLINATION":82.5117,"RA_OF_ASC_NODE":267.6516,"ARG_OF_PERICENTER":29.4072,"MEAN_ANOMALY":330.8064,"EPHEMERIS_TYPE":0,"CLASSIFICATION_TYPE":"U","NORAD_CAT_ID":11672,"ELEMENT_SET_NO":999,"REV_AT_EPOCH":48270,"BSTAR":3.6916097e-5,"MEAN_MOTION_DOT":3.91e-6,"MEAN_MOTION_DDOT":0},{"OBJECT_NAME":"SL-8 R/B","OBJECT_ID":"1981-003B","EPOCH":"2026-04-20T08:47:06.699264","MEAN_MOTION":15.12683574,"ECCENTRICITY":0.02570405,"INCLINATION":82.9371,"RA_OF_ASC_NODE":251.429,"ARG_OF_PERICENTER":33.8336,"MEAN_ANOMALY":327.8996,"EPHEMERIS_TYPE":0,"CLASSIFICATION_TYPE":"U","NORAD_CAT_ID":12139,"ELEMENT_SET_NO":999,"REV_AT_EPOCH":32097,"BSTAR":0.00025545027,"MEAN_MOTION_DOT":0.00010303,"MEAN_MOTION_DDOT":0},{"OBJECT_NAME":"SL-3 R/B","OBJECT_ID":"1981-046B","EPOCH":"2026-04-20T15:00:26.549856","MEAN_MOTION":15.42995496,"ECCENTRICITY":0.00182574,"INCLINATION":81.2313,"RA_OF_ASC_NODE":239.3405,"ARG_OF_PERICENTER":231.4785,"MEAN_ANOMALY":128.4823,"EPHEMERIS_TYPE":0,"CLASSIFICATION_TYPE":"U","NORAD_CAT_ID":12465,"ELEMENT_SET_NO":999,"REV_AT_EPOCH":44489,"BSTAR":0.00022583381,"MEAN_MOTION_DOT":0.00010041,"MEAN_MOTION_DDOT":0},{"OBJECT_NAME":"SL-3 R/B","OBJECT_ID":"1981-103B","EPOCH":"2026-04-20T12:42:54.789120","MEAN_MOTION":15.2181579,"ECCENTRICITY":0.00140669,"INCLINATION":81.1587,"RA_OF_ASC_NODE":164.3433,"ARG_OF_PERICENTER":142.2399,"MEAN_ANOMALY":217.9823,"EPHEMERIS_TYPE":0,"CLASSIFICATION_TYPE":"U","NORAD_CAT_ID":12904,"ELEMENT_SET_NO":999,"REV_AT_EPOCH":97959,"BSTAR":0.00012455862,"MEAN_MOTION_DOT":2.861e-5,"MEAN_MOTION_DDOT":0},{"OBJECT_NAME":"SL-3 R/B","OBJECT_ID":"1982-013B","EPOCH":"2026-04-20T12:31:33.476736","MEAN_MOTION":15.22356927,"ECCENTRICITY":0.00230237,"INCLINATION":81.1712,"RA_OF_ASC_NODE":111.7197,"ARG_OF_PERICENTER":41.8211,"MEAN_ANOMALY":318.4775,"EPHEMERIS_TYPE":0,"CLASSIFICATION_TYPE":"U","NORAD_CAT_ID":13068,"ELEMENT_SET_NO":999,"REV_AT_EPOCH":41071,"BSTAR":0.00012998273,"MEAN_MOTION_DOT":3.046e-5,"MEAN_MOTION_DDOT":0},{"OBJECT_NAME":"SL-3 R/B","OBJECT_ID":"1982-039B","EPOCH":"2026-04-20T12:44:53.425824","MEAN_MOTION":15.10286422,"ECCENTRICITY":0.00280848,"INCLINATION":81.1503,"RA_OF_ASC_NODE":167.7007,"ARG_OF_PERICENTER":182.3481,"MEAN_ANOMALY":177.7618,"EPHEMERIS_TYPE":0,"CLASSIFICATION_TYPE":"U","NORAD_CAT_ID":13154,"ELEMENT_SET_NO":999,"REV_AT_EPOCH":38795,"BSTAR":6.3541547e-5,"MEAN_MOTION_DOT":1.074e-5,"MEAN_MOTION_DDOT":0},{"OBJECT_NAME":"SL-3 R/B","OBJECT_ID":"1982-079B","EPOCH":"2026-04-20T14:13:07.725792","MEAN_MOTION":15.25273614,"ECCENTRICITY":0.00246221,"INCLINATION":81.1447,"RA_OF_ASC_NODE":143.5852,"ARG_OF_PERICENTER":27.4737,"MEAN_ANOMALY":332.7792,"EPHEMERIS_TYPE":0,"CLASSIFICATION_TYPE":"U","NORAD_CAT_ID":13403,"ELEMENT_SET_NO":999,"REV_AT_EPOCH":38408,"BSTAR":0.00013033831,"MEAN_MOTION_DOT":3.333e-5,"MEAN_MOTION_DDOT":0},{"OBJECT_NAME":"SL-14 R/B","OBJECT_ID":"1982-092B","EPOCH":"2026-04-20T11:00:48.610944","MEAN_MOTION":14.8670124,"ECCENTRICITY":0.00208893,"INCLINATION":82.5647,"RA_OF_ASC_NODE":102.3163,"ARG_OF_PERICENTER":158.3905,"MEAN_ANOMALY":2.6464,"EPHEMERIS_TYPE":0,"CLASSIFICATION_TYPE":"U","NORAD_CAT_ID":13553,"ELEMENT_SET_NO":999,"REV_AT_EPOCH":33513,"BSTAR":2.8655323e-5,"MEAN_MOTION_DOT":2.81e-6,"MEAN_MOTION_DDOT":0},{"OBJECT_NAME":"SL-3 R/B","OBJECT_ID":"1983-010B","EPOCH":"2026-04-20T06:50:55.622400","MEAN_MOTION":15.47603914,"ECCENTRICITY":0.0015025,"INCLINATION":81.1008,"RA_OF_ASC_NODE":311.1936,"ARG_OF_PERICENTER":261.6049,"MEAN_ANOMALY":98.3494,"EPHEMERIS_TYPE":0,"CLASSIFICATION_TYPE":"U","NORAD_CAT_ID":13819,"ELEMENT_SET_NO":999,"REV_AT_EPOCH":36437,"BSTAR":0.00017412,"MEAN_MOTION_DOT":9.044e-5,"MEAN_MOTION_DDOT":0},{"OBJECT_NAME":"SL-3 R/B","OBJECT_ID":"1983-075B","EPOCH":"2026-04-20T13:28:58.487520","MEAN_MOTION":15.39361375,"ECCENTRICITY":0.0023177,"INCLINATION":97.6131,"RA_OF_ASC_NODE":116.7576,"ARG_OF_PERICENTER":81.3017,"MEAN_ANOMALY":279.0852,"EPHEMERIS_TYPE":0,"CLASSIFICATION_TYPE":"U","NORAD_CAT_ID":14208,"ELEMENT_SET_NO":999,"REV_AT_EPOCH":33659,"BSTAR":0.00022553297,"MEAN_MOTION_DOT":8.804e-5,"MEAN_MOTION_DDOT":0},{"OBJECT_NAME":"COSMOS 1536","OBJECT_ID":"1984-013A","EPOCH":"2026-04-20T08:16:03.623232","MEAN_MOTION":15.24380575,"ECCENTRICITY":0.00157977,"INCLINATION":82.5451,"RA_OF_ASC_NODE":66.4159,"ARG_OF_PERICENTER":130.476,"MEAN_ANOMALY":229.7858,"EPHEMERIS_TYPE":0,"CLASSIFICATION_TYPE":"U","NORAD_CAT_ID":14699,"ELEMENT_SET_NO":999,"REV_AT_EPOCH":27896,"BSTAR":0.00021448962,"MEAN_MOTION_DOT":5.303e-5,"MEAN_MOTION_DDOT":0},{"OBJECT_NAME":"SL-14 R/B","OBJECT_ID":"1984-027B","EPOCH":"2026-04-20T05:45:15.327072","MEAN_MOTION":14.86018339,"ECCENTRICITY":0.0017686,"INCLINATION":82.5443,"RA_OF_ASC_NODE":206.0495,"ARG_OF_PERICENTER":191.0593,"MEAN_ANOMALY":169.0237,"EPHEMERIS_TYPE":0,"CLASSIFICATION_TYPE":"U","NORAD_CAT_ID":14820,"ELEMENT_SET_NO":999,"REV_AT_EPOCH":25380,"BSTAR":3.1856e-5,"MEAN_MOTION_DOT":3.04e-6,"MEAN_MOTION_DDOT":0},{"OBJECT_NAME":"SL-8 R/B","OBJECT_ID":"1985-006B","EPOCH":"2026-04-20T11:09:54.283104","MEAN_MOTION":14.37809331,"ECCENTRICITY":0.0017194,"INCLINATION":74.0462,"RA_OF_ASC_NODE":184.2796,"ARG_OF_PERICENTER":88.2622,"MEAN_ANOMALY":282.9711,"EPHEMERIS_TYPE":0,"CLASSIFICATION_TYPE":"U","NORAD_CAT_ID":15483,"ELEMENT_SET_NO":999,"REV_AT_EPOCH":16003,"BSTAR":5.6679599e-5,"MEAN_MOTION_DOT":1.45e-6,"MEAN_MOTION_DDOT":0},{"OBJECT_NAME":"SL-12 R/B(2)","OBJECT_ID":"1985-042D","EPOCH":"2026-04-20T10:20:18.779424","MEAN_MOTION":14.21993898,"ECCENTRICITY":0.00332437,"INCLINATION":71.1102,"RA_OF_ASC_NODE":359.5427,"ARG_OF_PERICENTER":58.928,"MEAN_ANOMALY":113.4906,"EPHEMERIS_TYPE":0,"CLASSIFICATION_TYPE":"U","NORAD_CAT_ID":15772,"ELEMENT_SET_NO":999,"REV_AT_EPOCH":12032,"BSTAR":2.0942867e-5,"MEAN_MOTION_DOT":-1.0e-8,"MEAN_MOTION_DDOT":0},{"OBJECT_NAME":"SL-14 R/B","OBJECT_ID":"1985-069B","EPOCH":"2026-04-20T01:51:09.257472","MEAN_MOTION":14.86473466,"ECCENTRICITY":0.00201213,"INCLINATION":82.5284,"RA_OF_ASC_NODE":346.0257,"ARG_OF_PERICENTER":57.8951,"MEAN_ANOMALY":302.4215,"EPHEMERIS_TYPE":0,"CLASSIFICATION_TYPE":"U","NORAD_CAT_ID":15945,"ELEMENT_SET_NO":999,"REV_AT_EPOCH":17898,"BSTAR":3.164672e-5,"MEAN_MOTION_DOT":3.05e-6,"MEAN_MOTION_DDOT":0},{"OBJECT_NAME":"SL-16 R/B","OBJECT_ID":"1985-097B","EPOCH":"2026-04-20T07:33:23.349312","MEAN_MOTION":14.16607181,"ECCENTRICITY":0.0008374,"INCLINATION":71.0039,"RA_OF_ASC_NODE":52.9161,"ARG_OF_PERICENTER":208.9131,"MEAN_ANOMALY":313.7064,"EPHEMERIS_TYPE":0,"CLASSIFICATION_TYPE":"U","NORAD_CAT_ID":16182,"ELEMENT_SET_NO":999,"REV_AT_EPOCH":9312,"BSTAR":1.2602e-5,"MEAN_MOTION_DOT":-2.3e-7,"MEAN_MOTION_DDOT":0}]
